ALOS (DAICHI)           
1 28931U 06002A   26085.86221494  .00001271  00000+0  22084-3 0  9997
2 28931  98.1245  41.7351 0000805 103.5214 256.6081 14.69860279 76007
H-2A R/B                
1 28932U 06002B   26085.82949030  .00012283  00000+0  60719-3 0  9999
2 28932  98.2440 234.3351 0052382 182.4313 177.6672 15.16788028 97037
RESURS-DK 1             
1 29228U 06021A   26085.39643453  .00002165  00000+0  12896-3 0  9992
2 29228  69.9337 193.8061 0000933  66.6761 293.4503 15.12849732 90059
CZ-4B R/B               
1 29507U 06046C   26085.56147032  .00003935  00000+0  19964-3 0  9999
2 29507  97.5562 130.4242 0032516 206.5182 153.4389 15.17068958 62603
CZ-2C R/B               
1 31114U 07010B   26085.28169860  .00000139  00000+0  83269-4 0  9993
2 31114  98.3996 197.7303 0057958 245.4224 114.0907 14.20252036982076
COSMO-SKYMED 1          
1 31598U 07023A   26085.84733148  .00003189  00000+0  28482-3 0  9994
2 31598  97.8879 277.0192 0000939  94.1794 265.9534 14.96656583 17475
COSMOS 2428             
1 31792U 07029A   26085.59631240 -.00000040  00000+0  44665-5 0  9995
2 31792  70.9438 167.8602 0009675 259.7433 100.2597 14.12948167966485
SL-16 R/B               
1 31793U 07029B   26085.68789542  .00000108  00000+0  80669-4 0  9992
2 31793  70.9751 136.6550 0002619 277.7542 218.1714 14.14842984967777
KORONAS-FOTON           
1 33504U 09003A   26085.87903536  .00013753  00000+0  30251-3 0  9991
2 33504  82.4277 257.9980 0011797  94.0368 266.2228 15.43767406948396
CZ-2C R/B               
1 37731U 11030B   26085.83135177  .00001393  00000+0  18161-3 0  9997
2 37731  97.8572  42.7552 0051179 295.4354  92.4916 14.81280450792632
H-2A R/B                
1 38341U 12025E   26085.72626945  .00003471  00000+0  31579-3 0  9993
2 38341  98.4760  54.1408 0042705 256.5869 103.0588 14.95284150750765
SHIJIAN-16 (SJ-16)      
1 39358U 13057A   26085.79057447  .00000954  00000+0  95823-4 0  9996
2 39358  74.9723 152.7164 0015269  68.2686 292.0126 14.92411506674054
SL-4 R/B                
1 39679U 14021B   26084.79284514  .00017461  00000+0  37834-3 0  9998
2 39679  51.6053 258.6863 0095971 161.6166 198.8326 15.39717175658756
ALOS-2                  
1 39766U 14029A   26085.82979087  .00001801  00000+0  24811-3 0  9996
2 39766  97.9185 184.1774 0001899 104.4812 255.6610 14.79438718639400
YAOGAN-29               
1 41038U 15069A   26085.86482319  .00000187  00000+0  29619-4 0  9995
2 41038  98.0125 114.3389 0000678   9.9869 350.1358 14.83013006558429
ASTRO-H (HITOMI)        
1 41337U 16012A   26085.68797876  .00002946  00000+0  17057-3 0  9990
2 41337  30.9987 246.8445 0009610 142.6618 217.4689 15.10108075554800
HXMT (HUIYAN)           
1 42758U 17034A   26085.89031157  .00005260  00000+0  26464-3 0  9993
2 42758  43.0144 281.0294 0032152 340.9821  18.9825 15.17677656485157
